ONEWEB-0392             
1 50472U 21132D   26053.18917182  .00000033  00000+0  50779-4 0  9997
2 50472  87.9131  28.6768 0002037  72.7852 287.3502 13.17647808202971
ONEWEB-0393             
1 50473U 21132E   26053.16231483  .00000027  00000+0  35954-4 0  9990
2 50473  87.9129  28.7057 0001939  78.2567 281.8781 13.17649936202966
ONEWEB-0394             
1 50474U 21132F   26052.76557291  .00000030  00000+0  42487-4 0  9997
2 50474  87.9239 358.3564 0001824  75.2735 284.8599 13.18684932206387
ONEWEB-0395             
1 50475U 21132G   26052.95892747  .00000560  00000+0  15449-2 0  9991
2 50475  87.8836  43.9903 0002093  85.2770 274.8596 13.11416957200612
ONEWEB-0396             
1 50476U 21132H   26052.75897397  .00000024  00000+0  27521-4 0  9997
2 50476  87.9242 358.3691 0001845  74.7143 285.4193 13.18684907206428
ONEWEB-0397             
1 50477U 21132J   26053.07732001  .00000063  00000+0  12681-3 0  9997
2 50477  87.9241 358.3064 0001713  74.8788 285.2534 13.18684743206449
ONEWEB-0398             
1 50478U 21132K   26053.00299114 -.00000493  00000+0 -14278-2 0  9996
2 50478  87.8842  43.9616 0002252  89.5470 270.5916 13.11418028200513
ONEWEB-0399             
1 50479U 21132L   26052.45534967 -.00000413  00000+0 -12006-2 0  9992
2 50479  87.8836  44.0803 0001783  69.8924 290.2395 13.11414834200432
ONEWEB-0400             
1 50480U 21132M   26053.13176185  .00000113  00000+0  25375-3 0  9993
2 50480  87.9239 358.2853 0002009  81.5667 278.5693 13.18685098206440
ONEWEB-0401             
1 50481U 21132N   26052.79690837  .00000053  00000+0  10074-3 0  9993
2 50481  87.9239 358.3478 0001672  78.1220 282.0099 13.18685846206404
ONEWEB-0402             
1 50482U 21132P   26053.14000469  .00000027  00000+0  34888-4 0  9991
2 50482  87.9242 358.2714 0001295  79.1516 280.9761 13.18685410206478
ONEWEB-0403             
1 50483U 21132Q   26053.08887086  .00000117  00000+0  26458-3 0  9996
2 50483  87.9241 358.3045 0001933  76.8558 283.2790 13.18685153206422
ONEWEB-0404             
1 50484U 21132R   26053.04709397  .00000276  00000+0  74408-3 0  9995
2 50484  87.8835  43.9703 0001986  75.7718 284.3631 13.11415033200604
ONEWEB-0405             
1 50485U 21132S   26053.10371175  .00000101  00000+0  22361-3 0  9990
2 50485  87.9240 358.2856 0001620  74.2218 285.9093 13.18684779206822
ONEWEB-0406             
1 50486U 21132T   26053.09382388  .00000090  00000+0  19629-3 0  9997
2 50486  87.9239 358.3130 0002087  68.0341 292.1013 13.18686932206457
ONEWEB-0407             
1 50487U 21132U   26053.08721831  .00000109  00000+0  24324-3 0  9996
2 50487  87.9242 358.2974 0001764  85.1520 274.9813 13.18685164206392
ONEWEB-0409             
1 50488U 21132V   26052.96911352  .00001017  00000+0  28336-2 0  9997
2 50488  87.8847  43.9652 0002119  77.3360 282.8005 13.11414644200485
