[{"OBJECT_NAME":"ONEWEB-0392","OBJECT_ID":"2021-132D","EPOCH":"2026-02-22T04:32:24.445248","MEAN_MOTION":13.17647808,"ECCENTRICITY":0.0002037,"INCLINATION":87.9131,"RA_OF_ASC_NODE":28.6768,"ARG_OF_PERICENTER":72.7852,"MEAN_ANOMALY":287.3502,"EPHEMERIS_TYPE":0,"CLASSIFICATION_TYPE":"U","NORAD_CAT_ID":50472,"ELEMENT_SET_NO":999,"REV_AT_EPOCH":20297,"BSTAR":5.0779e-5,"MEAN_MOTION_DOT":3.3e-7,"MEAN_MOTION_DDOT":0},{"OBJECT_NAME":"ONEWEB-0393","OBJECT_ID":"2021-132E","EPOCH":"2026-02-22T03:53:44.001312","MEAN_MOTION":13.17649936,"ECCENTRICITY":0.0001939,"INCLINATION":87.9129,"RA_OF_ASC_NODE":28.7057,"ARG_OF_PERICENTER":78.2567,"MEAN_ANOMALY":281.8781,"EPHEMERIS_TYPE":0,"CLASSIFICATION_TYPE":"U","NORAD_CAT_ID":50473,"ELEMENT_SET_NO":999,"REV_AT_EPOCH":20296,"BSTAR":3.5954e-5,"MEAN_MOTION_DOT":2.7e-7,"MEAN_MOTION_DDOT":0},{"OBJECT_NAME":"ONEWEB-0394","OBJECT_ID":"2021-132F","EPOCH":"2026-02-21T18:22:25.499424","MEAN_MOTION":13.18684932,"ECCENTRICITY":0.0001824,"INCLINATION":87.9239,"RA_OF_ASC_NODE":358.3564,"ARG_OF_PERICENTER":75.2735,"MEAN_ANOMALY":284.8599,"EPHEMERIS_TYPE":0,"CLASSIFICATION_TYPE":"U","NORAD_CAT_ID":50474,"ELEMENT_SET_NO":999,"REV_AT_EPOCH":20638,"BSTAR":4.2487e-5,"MEAN_MOTION_DOT":3.0e-7,"MEAN_MOTION_DDOT":0},{"OBJECT_NAME":"ONEWEB-0395","OBJECT_ID":"2021-132G","EPOCH":"2026-02-21T23:00:51.333408","MEAN_MOTION":13.11416957,"ECCENTRICITY":0.0002093,"INCLINATION":87.8836,"RA_OF_ASC_NODE":43.9903,"ARG_OF_PERICENTER":85.277,"MEAN_ANOMALY":274.8596,"EPHEMERIS_TYPE":0,"CLASSIFICATION_TYPE":"U","NORAD_CAT_ID":50475,"ELEMENT_SET_NO":999,"REV_AT_EPOCH":20061,"BSTAR":0.0015449,"MEAN_MOTION_DOT":5.6e-6,"MEAN_MOTION_DDOT":0},{"OBJECT_NAME":"ONEWEB-0396","OBJECT_ID":"2021-132H","EPOCH":"2026-02-21T18:12:55.351008","MEAN_MOTION":13.18684907,"ECCENTRICITY":0.0001845,"INCLINATION":87.9242,"RA_OF_ASC_NODE":358.3691,"ARG_OF_PERICENTER":74.7143,"MEAN_ANOMALY":285.4193,"EPHEMERIS_TYPE":0,"CLASSIFICATION_TYPE":"U","NORAD_CAT_ID":50476,"ELEMENT_SET_NO":999,"REV_AT_EPOCH":20642,"BSTAR":2.7521e-5,"MEAN_MOTION_DOT":2.4e-7,"MEAN_MOTION_DDOT":0},{"OBJECT_NAME":"ONEWEB-0397","OBJECT_ID":"2021-132J","EPOCH":"2026-02-22T01:51:20.448864","MEAN_MOTION":13.18684743,"ECCENTRICITY":0.0001713,"INCLINATION":87.9241,"RA_OF_ASC_NODE":358.3064,"ARG_OF_PERICENTER":74.8788,"MEAN_ANOMALY":285.2534,"EPHEMERIS_TYPE":0,"CLASSIFICATION_TYPE":"U","NORAD_CAT_ID":50477,"ELEMENT_SET_NO":999,"REV_AT_EPOCH":20644,"BSTAR":0.00012681,"MEAN_MOTION_DOT":6.3e-7,"MEAN_MOTION_DDOT":0},{"OBJECT_NAME":"ONEWEB-0398","OBJECT_ID":"2021-132K","EPOCH":"2026-02-22T00:04:18.434496","MEAN_MOTION":13.11418028,"ECCENTRICITY":0.0002252,"INCLINATION":87.8842,"RA_OF_ASC_NODE":43.9616,"ARG_OF_PERICENTER":89.547,"MEAN_ANOMALY":270.5916,"EPHEMERIS_TYPE":0,"CLASSIFICATION_TYPE":"U","NORAD_CAT_ID":50478,"ELEMENT_SET_NO":999,"REV_AT_EPOCH":20051,"BSTAR":-0.0014278,"MEAN_MOTION_DOT":-4.93e-6,"MEAN_MOTION_DDOT":0},{"OBJECT_NAME":"ONEWEB-0399","OBJECT_ID":"2021-132L","EPOCH":"2026-02-21T10:55:42.211488","MEAN_MOTION":13.11414834,"ECCENTRICITY":0.00017836,"INCLINATION":87.8836,"RA_OF_ASC_NODE":44.0803,"ARG_OF_PERICENTER":69.8924,"MEAN_ANOMALY":290.2395,"EPHEMERIS_TYPE":0,"CLASSIFICATION_TYPE":"U","NORAD_CAT_ID":50479,"ELEMENT_SET_NO":999,"REV_AT_EPOCH":20043,"BSTAR":-0.0012006288,"MEAN_MOTION_DOT":-4.13e-6,"MEAN_MOTION_DDOT":0},{"OBJECT_NAME":"ONEWEB-0400","OBJECT_ID":"2021-132M","EPOCH":"2026-02-22T03:09:44.223840","MEAN_MOTION":13.18685098,"ECCENTRICITY":0.0002009,"INCLINATION":87.9239,"RA_OF_ASC_NODE":358.2853,"ARG_OF_PERICENTER":81.5667,"MEAN_ANOMALY":278.5693,"EPHEMERIS_TYPE":0,"CLASSIFICATION_TYPE":"U","NORAD_CAT_ID":50480,"ELEMENT_SET_NO":999,"REV_AT_EPOCH":20644,"BSTAR":0.00025375,"MEAN_MOTION_DOT":1.13e-6,"MEAN_MOTION_DDOT":0},{"OBJECT_NAME":"ONEWEB-0401","OBJECT_ID":"2021-132N","EPOCH":"2026-02-21T19:07:32.883168","MEAN_MOTION":13.18685846,"ECCENTRICITY":0.0001672,"INCLINATION":87.9239,"RA_OF_ASC_NODE":358.3478,"ARG_OF_PERICENTER":78.122,"MEAN_ANOMALY":282.0099,"EPHEMERIS_TYPE":0,"CLASSIFICATION_TYPE":"U","NORAD_CAT_ID":50481,"ELEMENT_SET_NO":999,"REV_AT_EPOCH":20640,"BSTAR":0.00010074,"MEAN_MOTION_DOT":5.3e-7,"MEAN_MOTION_DDOT":0},{"OBJECT_NAME":"ONEWEB-0402","OBJECT_ID":"2021-132P","EPOCH":"2026-02-22T03:21:36.405216","MEAN_MOTION":13.1868541,"ECCENTRICITY":0.0001295,"INCLINATION":87.9242,"RA_OF_ASC_NODE":358.2714,"ARG_OF_PERICENTER":79.1516,"MEAN_ANOMALY":280.9761,"EPHEMERIS_TYPE":0,"CLASSIFICATION_TYPE":"U","NORAD_CAT_ID":50482,"ELEMENT_SET_NO":999,"REV_AT_EPOCH":20647,"BSTAR":3.4888e-5,"MEAN_MOTION_DOT":2.7e-7,"MEAN_MOTION_DDOT":0},{"OBJECT_NAME":"ONEWEB-0403","OBJECT_ID":"2021-132Q","EPOCH":"2026-02-22T02:07:58.442304","MEAN_MOTION":13.18685153,"ECCENTRICITY":0.0001933,"INCLINATION":87.9241,"RA_OF_ASC_NODE":358.3045,"ARG_OF_PERICENTER":76.8558,"MEAN_ANOMALY":283.279,"EPHEMERIS_TYPE":0,"CLASSIFICATION_TYPE":"U","NORAD_CAT_ID":50483,"ELEMENT_SET_NO":999,"REV_AT_EPOCH":20642,"BSTAR":0.00026458,"MEAN_MOTION_DOT":1.17e-6,"MEAN_MOTION_DDOT":0},{"OBJECT_NAME":"ONEWEB-0404","OBJECT_ID":"2021-132R","EPOCH":"2026-02-22T01:07:48.919008","MEAN_MOTION":13.11415033,"ECCENTRICITY":0.0001986,"INCLINATION":87.8835,"RA_OF_ASC_NODE":43.9703,"ARG_OF_PERICENTER":75.7718,"MEAN_ANOMALY":284.3631,"EPHEMERIS_TYPE":0,"CLASSIFICATION_TYPE":"U","NORAD_CAT_ID":50484,"ELEMENT_SET_NO":999,"REV_AT_EPOCH":20060,"BSTAR":0.00074408,"MEAN_MOTION_DOT":2.76e-6,"MEAN_MOTION_DDOT":0},{"OBJECT_NAME":"ONEWEB-0405","OBJECT_ID":"2021-132S","EPOCH":"2026-02-22T02:29:20.695200","MEAN_MOTION":13.18684779,"ECCENTRICITY":0.000162,"INCLINATION":87.924,"RA_OF_ASC_NODE":358.2856,"ARG_OF_PERICENTER":74.2218,"MEAN_ANOMALY":285.9093,"EPHEMERIS_TYPE":0,"CLASSIFICATION_TYPE":"U","NORAD_CAT_ID":50485,"ELEMENT_SET_NO":999,"REV_AT_EPOCH":20682,"BSTAR":0.00022361,"MEAN_MOTION_DOT":1.01e-6,"MEAN_MOTION_DDOT":0},{"OBJECT_NAME":"ONEWEB-0406","OBJECT_ID":"2021-132T","EPOCH":"2026-02-22T02:15:06.383232","MEAN_MOTION":13.18686932,"ECCENTRICITY":0.0002087,"INCLINATION":87.9239,"RA_OF_ASC_NODE":358.313,"ARG_OF_PERICENTER":68.0341,"MEAN_ANOMALY":292.1013,"EPHEMERIS_TYPE":0,"CLASSIFICATION_TYPE":"U","NORAD_CAT_ID":50486,"ELEMENT_SET_NO":999,"REV_AT_EPOCH":20645,"BSTAR":0.00019629,"MEAN_MOTION_DOT":9.0e-7,"MEAN_MOTION_DDOT":0},{"OBJECT_NAME":"ONEWEB-0407","OBJECT_ID":"2021-132U","EPOCH":"2026-02-22T02:05:35.661984","MEAN_MOTION":13.18685164,"ECCENTRICITY":0.0001764,"INCLINATION":87.9242,"RA_OF_ASC_NODE":358.2974,"ARG_OF_PERICENTER":85.152,"MEAN_ANOMALY":274.9813,"EPHEMERIS_TYPE":0,"CLASSIFICATION_TYPE":"U","NORAD_CAT_ID":50487,"ELEMENT_SET_NO":999,"REV_AT_EPOCH":20639,"BSTAR":0.00024324,"MEAN_MOTION_DOT":1.09e-6,"MEAN_MOTION_DDOT":0},{"OBJECT_NAME":"ONEWEB-0409","OBJECT_ID":"2021-132V","EPOCH":"2026-02-21T23:15:31.408128","MEAN_MOTION":13.11414644,"ECCENTRICITY":0.0002119,"INCLINATION":87.8847,"RA_OF_ASC_NODE":43.9652,"ARG_OF_PERICENTER":77.336,"MEAN_ANOMALY":282.8005,"EPHEMERIS_TYPE":0,"CLASSIFICATION_TYPE":"U","NORAD_CAT_ID":50488,"ELEMENT_SET_NO":999,"REV_AT_EPOCH":20048,"BSTAR":0.0028336,"MEAN_MOTION_DOT":1.017e-5,"MEAN_MOTION_DDOT":0}]
